Total gap duration: 4 days, 3:37:57.234720
STARLINK-4417
1 53200U 22084M   24101.18298327  .00001404  00000+0  11387-3 0  9995
2 53200  97.6577 163.0081 0000204 192.6934 167.4285 15.01258499 94899
Total gap duration: 4 days, 3:13:55.554429
STARLINK-6128
1 57132U 23090AH  24101.10617878  .00000422  00000+0  46329-4 0  9993
2 57132  43.0029 110.0928 0001140 278.0650  82.0062 15.02539636 44199
Total gap duration: 4 days, 2:42:25.913747
STARLINK-3524
1 51721U 22016H   24100.63173627  .00003749  00000+0  25353-3 0  9992
2 51721  53.2213 227.3241 0001596  93.3959 266.7216 15.08838262117893
Total gap duration: 4 days, 3:08:22.172411
STARLINK-6283
1 56406U 23061AJ  24100.80014320  .00000199  00000+0  29790-4 0  9997
2 56406  43.0030  22.0264 0000814 277.8250  82.2500 15.02537245 51774
Total gap duration: 4 days, 2:48:47.464882
STARLINK-4740
1 53871U 22114BF  24100.89613912  .00002180  00000+0  15503-3 0  9997
2 53871  53.2169 160.7462 0001609  87.4009 272.7167 15.08839361 87902
Total gap duration: 4 days, 3:04:39.624434
STARLINK-2521
1 48648U 21044L   24101.47794847  .00004092  00000+0  29338-3 0  9991
2 48648  53.0563  16.1729 0001819  79.7904 280.3290 15.06409210159316
Total gap duration: 4 days, 2:56:12.464242
STARLINK-5746
1 56926U 23083BC  24100.81702192  .00003005  00000+0  23742-3 0  9999
2 56926  43.0032 266.0951 0001383 269.1750  90.8934 15.02537513 46696
Total gap duration: 4 days, 3:09:30.911448
STARLINK-6349
1 57241U 23094Z   24100.67196570  .00003535  00000+0  27661-3 0  9995
2 57241  43.0042 216.1027 0001322 277.6844  82.3848 15.02543363 42112
Total gap duration: 4 days, 3:01:09.424690
STARLINK-5564
1 56134U 23046AU  24100.95833621  .00001906  00000+0  15616-3 0  9995
2 56134  43.0049 342.7667 0001201 274.2228  85.8477 15.02523958 57109
Total gap duration: 4 days, 3:03:21.878447
STARLINK-2751
1 48685U 21044AZ  24101.34617005 -.00000735  00000+0 -30442-4 0  9999
2 48685  53.0550 326.6482 0001275  91.9324 268.1811 15.06399892159997
Total gap duration: 4 days, 3:01:31.136704
STARLINK-1983
1 47630U 21012L   24100.85041055  .00002149  00000+0  16309-3 0  9998
2 47630  53.0547 308.9151 0001395  85.5246 274.5903 15.06407866174916
Total gap duration: 4 days, 3:28:48.503961
STARLINK-1830
1 46727U 20073BK  24101.45627042  .00000476  00000+0  50871-4 0  9997
2 46727  53.0537 111.1063 0001354  89.5459 270.5686 15.06407581192729
Total gap duration: 4 days, 3:13:42.966889
STARLINK-3629
1 51774U 22017G   24100.36489346  .00001309  00000+0  10032-3 0  9997
2 51774  53.2180 238.5103 0001546  91.0157 269.1012 15.08834921116994
Total gap duration: 4 days, 3:22:12.351170
STARLINK-5860
1 57052U 23088E   24100.98800574  .00001554  00000+0  13008-3 0  9997
2 57052  43.0042 304.3055 0001473 277.8104  82.2571 15.02534005 44365
Total gap duration: 4 days, 3:04:54.583234
STARLINK-3992
1 52627U 22052AF  24101.21405809  .00000327  00000+0  38622-4 0  9996
2 52627  53.2171 164.7018 0001458  90.7691 269.3468 15.08831526105924
Total gap duration: 4 days, 3:27:53.514238
STARLINK-4343
1 53050U 22077H   24101.05005238 -.00002866  00000+0 -21853-3 0  9997
2 53050  97.6560 282.8736 0001541  85.9677 274.1724 15.01272954 96678
Total gap duration: 4 days, 3:25:07.363458
STARLINK-3088
1 49163U 21082AK  24100.80359836  .00001045  00000+0  95384-4 0  9997
2 49163  69.9993 236.5914 0003341 269.6862  90.3914 14.98332300142949
Total gap duration: 4 days, 3:14:42.709110
STARLINK-4792
1 53862U 22114AW  24100.92377652 -.00001315  00000+0 -64554-4 0  9991
2 53862  53.2175 180.8858 0001571  90.9214 269.1958 15.08839496 87622
Total gap duration: 4 days, 3:13:49.997388
STARLINK-3947
1 52607U 22052K   24101.51354938  .00000365  00000+0  41042-4 0  9995
2 52607  53.2185 178.3679 0001429  86.8810 273.2346 15.08836955105759
Total gap duration: 4 days, 3:13:51.295752
STARLINK-5262
1 54207U 22141BC  24100.79219840 -.00000242  00000+0  29310-5 0  9993
2 54207  53.2228 251.2007 0001991  87.1639 272.9581 15.08827518 80493
Total gap duration: 4 days, 3:08:14.803349
STARLINK-1422
1 45696U 20035AR  24100.86284081  .00002507  00000+0  18711-3 0  9998
2 45696  53.0546 313.7716 0001353  88.7377 271.3767 15.06410599213532
Total gap duration: 4 days, 3:13:12.897408
STARLINK-3866
1 52500U 22049BB  24100.95553098  .00000542  00000+0  52107-4 0  9999
2 52500  53.2158 295.8582 0001091  74.9291 285.1822 15.08837918107208
Total gap duration: 4 days, 3:19:29.762029
STARLINK-1615
1 46166U 20057BB  24101.25001157  .00927463  00000+0  85447-2 0  9996
2 46166  53.0511 206.1678 0001195  75.6281 222.7245 15.64605379201536
Total gap duration: 4 days, 3:22:56.576722
STARLINK-30193
1 57414U 23102L   24101.17768156  .00001176  00000+0  10213-3 0  9992
2 57414  43.0008  84.2523 0000727 246.7668 113.3097 15.02536897 41169
Total gap duration: 4 days, 3:12:10.030678
STARLINK-30910
1 58376U 23178C   24101.16081715 -.00002428  00000+0 -75063-4 0  9999
2 58376  53.1079   7.8823 0001116  80.3196 279.7929 15.27998955 22919
Total gap duration: 4 days, 3:12:32.490385
STARLINK-3899
1 52457U 22049G   24100.99325259 -.00000765  00000+0 -29974-4 0  9995
2 52457  53.2156 325.6831 0001457  86.9524 273.1635 15.08836514106797
Total gap duration: 4 days, 3:13:13.351763
STARLINK-1784
1 46687U 20073T   24101.22544439  .00001837  00000+0  14214-3 0  9997
2 46687  53.0535 117.1412 0001291  94.0618 266.0519 15.06403873192617
Total gap duration: 4 days, 3:02:12.789339
STARLINK-5174
1 54067U 22136S   24101.36352395  .00000871  00000+0  72780-4 0  9993
2 54067  53.2211 238.8045 0001594  97.3692 262.7481 15.08842095 81903
Total gap duration: 4 days, 2:55:08.612321
BLUEWALKER 3 DEB
1 54247U 22111AS  24100.40321515  .00013393  00000+0  45779-3 0  9990
2 54247  53.1863 142.2254 0008446 220.3007 139.7369 15.30581505 78529
Total gap duration: 4 days, 3:08:49.727842
STARLINK-30870
1 58369U 23177U   24101.52558058  .00000361  00000+0  41782-4 0  9992
2 58369  43.0022 185.2204 0001029 280.5090  79.5636 15.02535336 23208
Total gap duration: 4 days, 3:02:18.182712
STARLINK-3083
1 49158U 21082AE  24101.40085336  .00015762  00000+0  96773-3 0  9992
2 49158  69.9978 228.1937 0003759 230.4831 129.6002 15.10166712143147
Total gap duration: 4 days, 3:21:43.194297
STARLINK-30838
1 58211U 23170F   24100.50594699  .00000847  00000+0  77784-4 0  9999
2 58211  43.0050  35.1215 0001132 266.9555  93.1157 15.02537291 25102
Total gap duration: 4 days, 2:41:23.094974
STARLINK-4563
1 53561U 22101AL  24100.88147297 -.00000442  00000+0 -96642-5 0  9992
2 53561  53.2179 321.1918 0001436  91.1909 268.9248 15.08842282 90814
Total gap duration: 4 days, 3:02:04.728352
STARLINK-30357
1 57750U 23131U   24100.78046462  .00000245  00000+0  33227-4 0  9999
2 57750  43.0050   9.1567 0000902 274.8619  85.2120 15.02533931 34797
Total gap duration: 4 days, 2:59:39.943017
STARLINK-5661
1 55343U 23013N   24101.44030467  .00003581  00000+0  28004-3 0  9998
2 55343  43.0019 134.5042 0001442 268.6800  91.3878 15.02532713 67108
Total gap duration: 4 days, 2:52:04.773527
STARLINK-1494
1 45760U 20038AG  24101.42312116  .00005240  00000+0  37038-3 0  9997
2 45760  53.0530 111.2581 0001429  85.1249 274.9903 15.06400002212157
Total gap duration: 4 days, 3:01:47.843669
STARLINK-6108
1 57155U 23090BG  24101.38455458  .00001220  00000+0  10533-3 0  9996
2 57155  43.0041  95.7186 0001225 264.4315  95.6387 15.02540449 44389
Total gap duration: 4 days, 3:03:35.579316
STARLINK-4447
1 53472U 22099H   24101.33486584  .00000942  00000+0  77916-4 0  9990
2 53472  97.6550 223.1571 0001661  94.0649 266.0765 15.01266759 91444
Total gap duration: 4 days, 2:55:30.692710
STARLINK-30586
1 58084U 23160K   24101.17875884  .00001241  00000+0  10693-3 0  9992
2 58084  43.0024 275.7697 0001390 270.4086  89.6597 15.02535338 27865
Total gap duration: 4 days, 2:59:38.953885
STARLINK-2431
1 47839U 21018BE  24101.36550958  .00002474  00000+0  18489-3 0  9991
2 47839  53.0538 116.5144 0001208  90.3642 269.7485 15.06404892171430
Total gap duration: 4 days, 3:02:28.232630
STARLINK-2048
1 48092U 21027A   24101.41945789  .00009329  00000+0  64424-3 0  9995
2 48092  53.0552 351.5537 0001443  85.5316 274.5837 15.06404855167811
Total gap duration: 4 days, 3:00:57.420123
STARLINK-4121
1 53002U 22076S   24101.11791308  .00002745  00000+0  19049-3 0  9998
2 53002  53.2186 350.1337 0001357  88.6047 271.5100 15.08844584 97850
Total gap duration: 4 days, 2:56:03.961168
STARLINK-30897
1 58360U 23177K   24101.22208313 -.00001815  00000+0 -11940-3 0  9995
2 58360  43.0044 187.2469 0001676 272.5950  87.4700 15.02512813 23173
Total gap duration: 4 days, 2:55:29.147072
STARLINK-5459
1 55669U 23021AT  24101.50956995 -.00000687  00000+0 -49764-4 0  9991
2 55669  69.9995 124.8287 0002402 264.7973  95.2912 14.98325185 64406
Total gap duration: 4 days, 3:18:48.832984
STARLINK-30979
1 58485U 23186N   24101.49149748 -.00000697  00000+0 -36561-4 0  9992
2 58485  43.0025 261.3310 0001415 277.3476  82.7206 15.02534176 20774
Total gap duration: 4 days, 3:35:47.002636
STARLINK-3528
1 51714U 22016A   24101.31157349 -.00000542  00000+0 -15938-4 0  9992
2 51714  53.2137 224.2605 0002296  97.1595 262.9658 15.08837368119061
Total gap duration: 4 days, 3:10:00.627761
STARLINK-30608
1 58091U 23160S   24101.55764375  .00004320  00000+0  33459-3 0  9990
2 58091  43.0043 273.4521 0001954 279.4253  80.6368 15.02549449 27872
Total gap duration: 4 days, 3:05:24.037268
STARLINK-3319
1 50847U 22001AW  24101.31896413 -.00000924  00000+0 -40006-4 0  9992
2 50847  53.2176  74.2381 0001293  91.4856 268.6284 15.08834342126039
Total gap duration: 4 days, 3:13:21.975816
STARLINK-6077
1 56097U 23046E   24101.56627532  .00000775  00000+0  72419-4 0  9991
2 56097  43.0032 300.5151 0001330 273.7859  86.2831 15.02532241 58189
Total gap duration: 4 days, 2:57:28.809872
STARLINK-3133
1 49416U 21104J   24101.20670909 -.00000744  00000+0 -28652-4 0  9996
2 49416  53.2153 124.7294 0001600  91.6691 268.4484 15.08833014134280
